ALOS-2                  
1 39766U 14029A   26081.90698090  .00001372  00000+0  19077-3 0  9994
2 39766  97.9192 180.3121 0001908 108.3618 251.7802 14.79423250638820
YAOGAN-29               
1 41038U 15069A   26081.95148229  .00000281  00000+0  41293-4 0  9997
2 41038  98.0120 110.4149 0000951  12.4980 347.6257 14.83007676557842
ASTRO-H (HITOMI)        
1 41337U 16012A   26081.92036873  .00003261  00000+0  18956-3 0  9996
2 41337  30.9990 271.1624 0009607 104.4208 255.7497 15.10085517554235
HXMT (HUIYAN)           
1 42758U 17034A   26081.94141691  .00006353  00000+0  31735-3 0  9991
2 42758  43.0144 302.9905 0032666 316.7050  43.1232 15.17632269484550
SAOCOM 1A               
1 43641U 18076A   26081.92507896  .00000475  00000+0  66198-4 0  9992
2 43641  97.8893 269.9109 0001444  86.0021 274.1358 14.82153772403322
H-2A R/B                
1 43682U 18084L   26081.58445739  .00022893  00000+0  53529-3 0  9996
2 43682  98.8706 301.7335 0024315 340.7871  19.2452 15.41877171407769
SAOCOM 1B               
1 46265U 20059A   26081.95629811  .00001290  00000+0  16855-3 0  9996
2 46265  97.8895 269.0396 0001539  87.4497 272.6893 14.82152854300711
CSS (TIANHE)            
1 48274U 21035A   26081.83094607  .00029328  00000+0  33727-3 0  9998
2 48274  41.4659 128.1599 0005131 357.6032   2.4782 15.61347376279663
COSMOS 2550             
1 48865U 21056A   26079.66782365 -.00000188  00000+0  12592-6 0  9994
2 48865  67.1449   7.6743 0008199 268.9235  91.0980 15.33831857265142
CZ-2C R/B               
1 52794U 22058K   26081.88101710  .00043490  00000+0  61137-3 0  9997
2 52794  50.1875 250.3831 0041714 257.1778 102.4530 15.55170109212184
CZ-2C R/B               
1 54039U 22132E   26081.94912878  .00046783  00000+0  50948-3 0  9992
2 54039  97.2965  85.6805 0018871  49.1753 311.1138 15.63066545192446
GSLV R/B                
1 54149U 22138AN  26081.75727227  .00003811  00000+0  32817-3 0  9991
2 54149  87.3868 161.9883 0024072 103.2474 257.1445 14.96857091185885
