CCSDS_OMM_VERS = 2.0
CREATION_DATE  = 
ORIGINATOR     = 

OBJECT_NAME    = ALOS-2
OBJECT_ID      = 2014-029A
CENTER_NAME    = EARTH
REF_FRAME      = TEME
TIME_SYSTEM    = UTC
MEAN_ELEMENT_THEORY = SGP/SGP4

EPOCH          = 2026-03-22T21:46:03.149760
MEAN_MOTION    = 14.79423250
ECCENTRICITY   = .00019081
INCLINATION    = 97.9192
RA_OF_ASC_NODE = 180.3121
ARG_OF_PERICENTER = 108.3618
MEAN_ANOMALY   = 251.7802

EPHEMERIS_TYPE = 0
CLASSIFICATION_TYPE = U
NORAD_CAT_ID   = 39766
ELEMENT_SET_NO = 999
REV_AT_EPOCH   = 63882
BSTAR          = .19076797E-3
MEAN_MOTION_DOT = .1372E-4
MEAN_MOTION_DDOT = 0

CCSDS_OMM_VERS = 2.0
CREATION_DATE  = 
ORIGINATOR     = 

OBJECT_NAME    = YAOGAN-29
OBJECT_ID      = 2015-069A
CENTER_NAME    = EARTH
REF_FRAME      = TEME
TIME_SYSTEM    = UTC
MEAN_ELEMENT_THEORY = SGP/SGP4

EPOCH          = 2026-03-22T22:50:08.069856
MEAN_MOTION    = 14.83007676
ECCENTRICITY   = .00009517
INCLINATION    = 98.0120
RA_OF_ASC_NODE = 110.4149
ARG_OF_PERICENTER = 12.4980
MEAN_ANOMALY   = 347.6257

EPHEMERIS_TYPE = 0
CLASSIFICATION_TYPE = U
NORAD_CAT_ID   = 41038
ELEMENT_SET_NO = 999
REV_AT_EPOCH   = 55784
BSTAR          = .41293302E-4
MEAN_MOTION_DOT = .281E-5
MEAN_MOTION_DDOT = 0

CCSDS_OMM_VERS = 2.0
CREATION_DATE  = 
ORIGINATOR     = 

OBJECT_NAME    = ASTRO-H (HITOMI)
OBJECT_ID      = 2016-012A
CENTER_NAME    = EARTH
REF_FRAME      = TEME
TIME_SYSTEM    = UTC
MEAN_ELEMENT_THEORY = SGP/SGP4

EPOCH          = 2026-03-22T22:05:19.858272
MEAN_MOTION    = 15.10085517
ECCENTRICITY   = .00096073
INCLINATION    = 30.9990
RA_OF_ASC_NODE = 271.1624
ARG_OF_PERICENTER = 104.4208
MEAN_ANOMALY   = 255.7497

EPHEMERIS_TYPE = 0
CLASSIFICATION_TYPE = U
NORAD_CAT_ID   = 41337
ELEMENT_SET_NO = 999
REV_AT_EPOCH   = 55423
BSTAR          = .18955804E-3
MEAN_MOTION_DOT = .3261E-4
MEAN_MOTION_DDOT = 0

CCSDS_OMM_VERS = 2.0
CREATION_DATE  = 
ORIGINATOR     = 

OBJECT_NAME    = HXMT (HUIYAN)
OBJECT_ID      = 2017-034A
CENTER_NAME    = EARTH
REF_FRAME      = TEME
TIME_SYSTEM    = UTC
MEAN_ELEMENT_THEORY = SGP/SGP4

EPOCH          = 2026-03-22T22:35:38.421024
MEAN_MOTION    = 15.17632269
ECCENTRICITY   = .00326667
INCLINATION    = 43.0144
RA_OF_ASC_NODE = 302.9905
ARG_OF_PERICENTER = 316.7050
MEAN_ANOMALY   = 43.1232

EPHEMERIS_TYPE = 0
CLASSIFICATION_TYPE = U
NORAD_CAT_ID   = 42758
ELEMENT_SET_NO = 999
REV_AT_EPOCH   = 48455
BSTAR          = .3173477E-3
MEAN_MOTION_DOT = .6353E-4
MEAN_MOTION_DDOT = 0

CCSDS_OMM_VERS = 2.0
CREATION_DATE  = 
ORIGINATOR     = 

OBJECT_NAME    = SAOCOM 1A
OBJECT_ID      = 2018-076A
CENTER_NAME    = EARTH
REF_FRAME      = TEME
TIME_SYSTEM    = UTC
MEAN_ELEMENT_THEORY = SGP/SGP4

EPOCH          = 2026-03-22T22:12:06.822144
MEAN_MOTION    = 14.82153772
ECCENTRICITY   = .00014442
INCLINATION    = 97.8893
RA_OF_ASC_NODE = 269.9109
ARG_OF_PERICENTER = 86.0021
MEAN_ANOMALY   = 274.1358

EPHEMERIS_TYPE = 0
CLASSIFICATION_TYPE = U
NORAD_CAT_ID   = 43641
ELEMENT_SET_NO = 999
REV_AT_EPOCH   = 40332
BSTAR          = .66197982E-4
MEAN_MOTION_DOT = .475E-5
MEAN_MOTION_DDOT = 0

CCSDS_OMM_VERS = 2.0
CREATION_DATE  = 
ORIGINATOR     = 

OBJECT_NAME    = H-2A R/B
OBJECT_ID      = 2018-084L
CENTER_NAME    = EARTH
REF_FRAME      = TEME
TIME_SYSTEM    = UTC
MEAN_ELEMENT_THEORY = SGP/SGP4

EPOCH          = 2026-03-22T14:01:37.118496
MEAN_MOTION    = 15.41877171
ECCENTRICITY   = .00243153
INCLINATION    = 98.8706
RA_OF_ASC_NODE = 301.7335
ARG_OF_PERICENTER = 340.7871
MEAN_ANOMALY   = 19.2452

EPHEMERIS_TYPE = 0
CLASSIFICATION_TYPE = U
NORAD_CAT_ID   = 43682
ELEMENT_SET_NO = 999
REV_AT_EPOCH   = 40776
BSTAR          = .53528542E-3
MEAN_MOTION_DOT = .22893E-3
MEAN_MOTION_DDOT = 0

CCSDS_OMM_VERS = 2.0
CREATION_DATE  = 
ORIGINATOR     = 

OBJECT_NAME    = SAOCOM 1B
OBJECT_ID      = 2020-059A
CENTER_NAME    = EARTH
REF_FRAME      = TEME
TIME_SYSTEM    = UTC
MEAN_ELEMENT_THEORY = SGP/SGP4

EPOCH          = 2026-03-22T22:57:04.156704
MEAN_MOTION    = 14.82152854
ECCENTRICITY   = .00015392
INCLINATION    = 97.8895
RA_OF_ASC_NODE = 269.0396
ARG_OF_PERICENTER = 87.4497
MEAN_ANOMALY   = 272.6893

EPHEMERIS_TYPE = 0
CLASSIFICATION_TYPE = U
NORAD_CAT_ID   = 46265
ELEMENT_SET_NO = 999
REV_AT_EPOCH   = 30071
BSTAR          = .1685535E-3
MEAN_MOTION_DOT = .129E-4
MEAN_MOTION_DDOT = 0

CCSDS_OMM_VERS = 2.0
CREATION_DATE  = 
ORIGINATOR     = 

OBJECT_NAME    = CSS (TIANHE)
OBJECT_ID      = 2021-035A
CENTER_NAME    = EARTH
REF_FRAME      = TEME
TIME_SYSTEM    = UTC
MEAN_ELEMENT_THEORY = SGP/SGP4

EPOCH          = 2026-03-22T19:56:33.740448
MEAN_MOTION    = 15.61347376
ECCENTRICITY   = .00051315
INCLINATION    = 41.4659
RA_OF_ASC_NODE = 128.1599
ARG_OF_PERICENTER = 357.6032
MEAN_ANOMALY   = 2.4782

EPHEMERIS_TYPE = 0
CLASSIFICATION_TYPE = U
NORAD_CAT_ID   = 48274
ELEMENT_SET_NO = 999
REV_AT_EPOCH   = 27966
BSTAR          = .33727428E-3
MEAN_MOTION_DOT = .29328E-3
MEAN_MOTION_DDOT = 0

CCSDS_OMM_VERS = 2.0
CREATION_DATE  = 
ORIGINATOR     = 

OBJECT_NAME    = COSMOS 2550
OBJECT_ID      = 2021-056A
CENTER_NAME    = EARTH
REF_FRAME      = TEME
TIME_SYSTEM    = UTC
MEAN_ELEMENT_THEORY = SGP/SGP4

EPOCH          = 2026-03-20T16:01:39.963360
MEAN_MOTION    = 15.33831857
ECCENTRICITY   = .00081995
INCLINATION    = 67.1449
RA_OF_ASC_NODE = 7.6743
ARG_OF_PERICENTER = 268.9235
MEAN_ANOMALY   = 91.0980

EPHEMERIS_TYPE = 0
CLASSIFICATION_TYPE = U
NORAD_CAT_ID   = 48865
ELEMENT_SET_NO = 999
REV_AT_EPOCH   = 26514
BSTAR          = .125924E-6
MEAN_MOTION_DOT = -.188E-5
MEAN_MOTION_DDOT = 0

CCSDS_OMM_VERS = 2.0
CREATION_DATE  = 
ORIGINATOR     = 

OBJECT_NAME    = CZ-2C R/B
OBJECT_ID      = 2022-058K
CENTER_NAME    = EARTH
REF_FRAME      = TEME
TIME_SYSTEM    = UTC
MEAN_ELEMENT_THEORY = SGP/SGP4

EPOCH          = 2026-03-22T21:08:39.877440
MEAN_MOTION    = 15.55170109
ECCENTRICITY   = .0041714
INCLINATION    = 50.1875
RA_OF_ASC_NODE = 250.3831
ARG_OF_PERICENTER = 257.1778
MEAN_ANOMALY   = 102.4530

EPHEMERIS_TYPE = 0
CLASSIFICATION_TYPE = U
NORAD_CAT_ID   = 52794
ELEMENT_SET_NO = 999
REV_AT_EPOCH   = 21218
BSTAR          = .6113673E-3
MEAN_MOTION_DOT = .4349E-3
MEAN_MOTION_DDOT = 0

CCSDS_OMM_VERS = 2.0
CREATION_DATE  = 
ORIGINATOR     = 

OBJECT_NAME    = CZ-2C R/B
OBJECT_ID      = 2022-132E
CENTER_NAME    = EARTH
REF_FRAME      = TEME
TIME_SYSTEM    = UTC
MEAN_ELEMENT_THEORY = SGP/SGP4

EPOCH          = 2026-03-22T22:46:44.726592
MEAN_MOTION    = 15.63066545
ECCENTRICITY   = .00188714
INCLINATION    = 97.2965
RA_OF_ASC_NODE = 85.6805
ARG_OF_PERICENTER = 49.1753
MEAN_ANOMALY   = 311.1138

EPHEMERIS_TYPE = 0
CLASSIFICATION_TYPE = U
NORAD_CAT_ID   = 54039
ELEMENT_SET_NO = 999
REV_AT_EPOCH   = 19244
BSTAR          = .50947531E-3
MEAN_MOTION_DOT = .46783E-3
MEAN_MOTION_DDOT = 0

CCSDS_OMM_VERS = 2.0
CREATION_DATE  = 
ORIGINATOR     = 

OBJECT_NAME    = GSLV R/B
OBJECT_ID      = 2022-138AN
CENTER_NAME    = EARTH
REF_FRAME      = TEME
TIME_SYSTEM    = UTC
MEAN_ELEMENT_THEORY = SGP/SGP4

EPOCH          = 2026-03-22T18:10:28.324128
MEAN_MOTION    = 14.96857091
ECCENTRICITY   = .00240729
INCLINATION    = 87.3868
RA_OF_ASC_NODE = 161.9883
ARG_OF_PERICENTER = 103.2474
MEAN_ANOMALY   = 257.1445

EPHEMERIS_TYPE = 0
CLASSIFICATION_TYPE = U
NORAD_CAT_ID   = 54149
ELEMENT_SET_NO = 999
REV_AT_EPOCH   = 18588
BSTAR          = .32817165E-3
MEAN_MOTION_DOT = .3811E-4
MEAN_MOTION_DDOT = 0

